GLOBALSTAR M063         
1 26081U 00008A   24144.18818499 -.00000037  00000+0  67379-3 0  9993
2 26081  51.9972  58.6733 0004319 293.3462 215.0786 11.86156236111292
GLOBALSTAR M062         
1 26082U 00008B   24144.35513583 -.00000031  00000+0  47730-3 0  9992
2 26082  51.9819 162.1334 0006990 359.6916 102.2520 12.43436596448120
GLOBALSTAR M060         
1 26083U 00008C   24143.99926088 -.00000166  00000+0 -74335-3 0  9991
2 26083  52.0031  67.9841 0003797  49.5274  80.1066 12.17633526104837
GLOBALSTAR M064         
1 26084U 00008D   24144.33978997 -.00000050  00000+0  47884-3 0  9997
2 26084  52.0001 161.7014 0001312  20.3557 339.7328 11.88519517120744
GLOBALSTAR M065         
1 31571U 07020A   24143.85056146 -.00000053  00000+0  28439-3 0  9992
2 31571  51.9909 334.2889 0010426 160.0272 304.2898 12.61971233784121
GLOBALSTAR M069         
1 31573U 07020C   24144.55770662 -.00000075  00000+0  16117-3 0  9992
2 31573  51.9955 287.9948 0000959 127.0831 310.4792 12.62273585785341
GLOBALSTAR M072         
1 31574U 07020D   24144.09357062 -.00000067  00000+0  20258-3 0  9999
2 31574  52.0107  25.3211 0000934  70.2178  77.2363 12.62263453783552
GLOBALSTAR M071         
1 31576U 07020F   24144.58432310 -.00000077  00000+0  14938-3 0  9994
2 31576  52.0075 293.0604 0000752  89.4475 348.7578 12.62266501446533
